{
  "type": "FeatureCollection",
  "features": [
    {
      "type": "Feature",
      "properties": {
        "norad_id": 66660,
        "name": "K-HERO",
        "group": "last-30-days",
        "lat": -57.887013796670104,
        "lon": 74.63109811408455,
        "alt_km": 592.7515076985965,
        "timestamp": "2025-12-05T19:30:24.352133+00:00",
        "meta_object_name": "K-HERO",
        "meta_object_id": "2025-274L",
        "meta_epoch": "2025-12-05T07:10:46.013088",
        "meta_mean_motion": 14.92891926,
        "meta_eccentricity": 0.00129657,
        "meta_inclination": 97.7394,
        "meta_ra_of_asc_node": 266.6407,
        "meta_arg_of_pericenter": 309.2025,
        "meta_mean_anomaly": 50.8042,
        "meta_ephemeris_type": 0,
        "meta_classification_type": "U",
        "meta_norad_cat_id": 66660,
        "meta_element_set_no": 999,
        "meta_rev_at_epoch": 129,
        "meta_bstar": 0.00053497482,
        "meta_mean_motion_dot": 5.499e-05,
        "meta_mean_motion_ddot": 0,
        "tle_line1": "1 66660U 25274L   25339.29914367  .00005499  00000+0  53497-3 0  9994",
        "tle_line2": "2 66660  97.7394 266.6407 0012965 309.2025  50.8042 14.92891926  1292"
      },
      "geometry": {
        "type": "Point",
        "coordinates": [
          74.63109811408455,
          -57.887013796670104
        ]
      }
    },
    {
      "type": "Feature",
      "properties": {
        "norad_id": 66661,
        "name": "SNUGLITE-III",
        "group": "last-30-days",
        "lat": -62.71867348668531,
        "lon": 71.85804305053658,
        "alt_km": 591.5672710481704,
        "timestamp": "2025-12-05T19:30:24.352148+00:00",
        "meta_object_name": "SNUGLITE-III",
        "meta_object_id": "2025-274M",
        "meta_epoch": "2025-12-05T07:09:29.397024",
        "meta_mean_motion": 14.93041442,
        "meta_eccentricity": 0.00136355,
        "meta_inclination": 97.7392,
        "meta_ra_of_asc_node": 266.6414,
        "meta_arg_of_pericenter": 310.0704,
        "meta_mean_anomaly": 49.9319,
        "meta_ephemeris_type": 0,
        "meta_classification_type": "U",
        "meta_norad_cat_id": 66661,
        "meta_element_set_no": 999,
        "meta_rev_at_epoch": 129,
        "meta_bstar": 0.00051687706,
        "meta_mean_motion_dot": 5.332e-05,
        "meta_mean_motion_ddot": 0,
        "tle_line1": "1 66661U 25274M   25339.29825691  .00005332  00000+0  51688-3 0  9992",
        "tle_line2": "2 66661  97.7392 266.6414 0013635 310.0704  49.9319 14.93041442  1295"
      },
      "geometry": {
        "type": "Point",
        "coordinates": [
          71.85804305053658,
          -62.71867348668531
        ]
      }
    },
    {
      "type": "Feature",
      "properties": {
        "norad_id": 66662,
        "name": "2025-274N",
        "group": "last-30-days",
        "lat": -64.74286528067805,
        "lon": 70.39523131563186,
        "alt_km": 590.8687841766368,
        "timestamp": "2025-12-05T19:30:24.352158+00:00",
        "meta_object_name": "2025-274N",
        "meta_object_id": "2025-274N",
        "meta_epoch": "2025-12-05T07:08:56.610816",
        "meta_mean_motion": 14.9309478,
        "meta_eccentricity": 0.00140544,
        "meta_inclination": 97.739,
        "meta_ra_of_asc_node": 266.6419,
        "meta_arg_of_pericenter": 309.3021,
        "meta_mean_anomaly": 50.6951,
        "meta_ephemeris_type": 0,
        "meta_classification_type": "U",
        "meta_norad_cat_id": 66662,
        "meta_element_set_no": 999,
        "meta_rev_at_epoch": 129,
        "meta_bstar": 0.00033972357,
        "meta_mean_motion_dot": 3.489e-05,
        "meta_mean_motion_ddot": 0,
        "tle_line1": "1 66662U 25274N   25339.29787744  .00003489  00000+0  33972-3 0  9996",
        "tle_line2": "2 66662  97.7390 266.6419 0014054 309.3021  50.6951 14.93094780  1292"
      },
      "geometry": {
        "type": "Point",
        "coordinates": [
          70.39523131563186,
          -64.74286528067805
        ]
      }
    },
    {
      "type": "Feature",
      "properties": {
        "norad_id": 66663,
        "name": "KSLV-II R/B",
        "group": "last-30-days",
        "lat": 25.766732384466362,
        "lon": -96.54471206799606,
        "alt_km": 550.7094140685294,
        "timestamp": "2025-12-05T19:30:24.352168+00:00",
        "meta_object_name": "KSLV-II R/B",
        "meta_object_id": "2025-274P",
        "meta_epoch": "2025-12-04T19:19:56.440704",
        "meta_mean_motion": 14.9720989,
        "meta_eccentricity": 0.00474064,
        "meta_inclination": 97.74,
        "meta_ra_of_asc_node": 266.2222,
        "meta_arg_of_pericenter": 346.0223,
        "meta_mean_anomaly": 13.9683,
        "meta_ephemeris_type": 0,
        "meta_classification_type": "U",
        "meta_norad_cat_id": 66663,
        "meta_element_set_no": 999,
        "meta_rev_at_epoch": 122,
        "meta_bstar": 0.00017772252,
        "meta_mean_motion_dot": 2.041e-05,
        "meta_mean_motion_ddot": 0,
        "tle_line1": "1 66663U 25274P   25338.80551436  .00002041  00000+0  17772-3 0  9993",
        "tle_line2": "2 66663  97.7400 266.2222 0047406 346.0223  13.9683 14.97209890  1223"
      },
      "geometry": {
        "type": "Point",
        "coordinates": [
          -96.54471206799606,
          25.766732384466362
        ]
      }
    },
    {
      "type": "Feature",
      "properties": {
        "norad_id": 66664,
        "name": "SOYUZ-MS 28",
        "group": "last-30-days",
        "lat": -45.22244486571115,
        "lon": 49.759636706934174,
        "alt_km": 421.1024413242503,
        "timestamp": "2025-12-05T19:30:24.352178+00:00",
        "meta_object_name": "SOYUZ-MS 28",
        "meta_object_id": "2025-275A",
        "meta_epoch": "2025-12-05T06:04:12.236160",
        "meta_mean_motion": 15.49328184,
        "meta_eccentricity": 0.00035858,
        "meta_inclination": 51.6297,
        "meta_ra_of_asc_node": 179.5463,
        "meta_arg_of_pericenter": 206.2517,
        "meta_mean_anomaly": 153.8291,
        "meta_ephemeris_type": 0,
        "meta_classification_type": "U",
        "meta_norad_cat_id": 66664,
        "meta_element_set_no": 999,
        "meta_rev_at_epoch": 128,
        "meta_bstar": 0.0002719745,
        "meta_mean_motion_dot": 0.00014736,
        "meta_mean_motion_ddot": 0,
        "tle_line1": "1 66664U 25275A   25339.25291940  .00014736  00000+0  27197-3 0  9992",
        "tle_line2": "2 66664  51.6297 179.5463 0003585 206.2517 153.8291 15.49328184  1284"
      },
      "geometry": {
        "type": "Point",
        "coordinates": [
          49.759636706934174,
          -45.22244486571115
        ]
      }
    },
    {
      "type": "Feature",
      "properties": {
        "norad_id": 66820,
        "name": "KOMPSAT-7",
        "group": "last-30-days",
        "lat": 76.98762623417498,
        "lon": -109.67609902251111,
        "alt_km": 571.3219151691001,
        "timestamp": "2025-12-05T19:30:24.352190+00:00",
        "meta_object_name": "KOMPSAT-7",
        "meta_object_id": "2025-279A",
        "meta_epoch": "2025-12-01T20:35:16.060992",
        "meta_mean_motion": 14.98310631,
        "meta_eccentricity": 0.00097501,
        "meta_inclination": 97.6394,
        "meta_ra_of_asc_node": 281.9587,
        "meta_arg_of_pericenter": 255.3935,
        "meta_mean_anomaly": 104.6207,
        "meta_ephemeris_type": 0,
        "meta_classification_type": "U",
        "meta_norad_cat_id": 66820,
        "meta_element_set_no": 999,
        "meta_rev_at_epoch": 2,
        "meta_bstar": 8.4407298e-05,
        "meta_mean_motion_dot": 9.47e-06,
        "meta_mean_motion_ddot": 0,
        "tle_line1": "1 66820U 25279A   25335.85782478  .00000947  00000+0  84407-4 0  9990",
        "tle_line2": "2 66820  97.6394 281.9587 0009750 255.3935 104.6207 14.98310631    23"
      },
      "geometry": {
        "type": "Point",
        "coordinates": [
          -109.67609902251111,
          76.98762623417498
        ]
      }
    },
    {
      "type": "Feature",
      "properties": {
        "norad_id": 66877,
        "name": "ZQ-3 R/B",
        "group": "last-30-days",
        "lat": 38.63860107686495,
        "lon": -127.50655519244297,
        "alt_km": 555.8495145115758,
        "timestamp": "2025-12-05T19:30:24.352201+00:00",
        "meta_object_name": "ZQ-3 R/B",
        "meta_object_id": "2025-282A",
        "meta_epoch": "2025-12-05T07:10:51.533184",
        "meta_mean_motion": 14.40698574,
        "meta_eccentricity": 0.08574754,
        "meta_inclination": 56.9554,
        "meta_ra_of_asc_node": 85.7648,
        "meta_arg_of_pericenter": 207.271,
        "meta_mean_anomaly": 148.0712,
        "meta_ephemeris_type": 0,
        "meta_classification_type": "U",
        "meta_norad_cat_id": 66877,
        "meta_element_set_no": 999,
        "meta_rev_at_epoch": 31,
        "meta_bstar": 0.00029209984,
        "meta_mean_motion_dot": 0.01317241,
        "meta_mean_motion_ddot": 7.178412e-06,
        "tle_line1": "1 66877U 25282A   25339.29920756  .01317241  71784-5  29210-3 0  9993",
        "tle_line2": "2 66877  56.9554  85.7648 0857475 207.2710 148.0712 14.40698574   318"
      },
      "geometry": {
        "type": "Point",
        "coordinates": [
          -127.50655519244297,
          38.63860107686495
        ]
      }
    }
  ]
}